*******************************************************************************
Ephemeris / WWW_USER Mon Jul 15 18:59:48 2024 Pasadena, USA      / Horizons    
*******************************************************************************
Target body name: (2018 RP1)                      {source: JPL#4}
Center body name: Earth (399)                     {source: DE441}
Center-site name: Gemini South Obs., Cerro Pachon
*******************************************************************************
Start time      : A.D. 2018-Dec-23 23:54:00.0000 UT      
Stop  time      : A.D. 2018-Dec-24 09:30:00.0000 UT      
Step-size       : 1 minutes
*******************************************************************************
Target pole/equ : undefined
Target radii    : undefined                                                    
Center geodetic : 289.2634, -30.2406227, 2.71233  {E-lon(deg),Lat(deg),Alt(km)}
Center cylindric: 289.2634,5517.21435,-3194.81213 {E-lon(deg),Dxy(km),Dz(km)}
Center pole/equ : ITRF93                          {East-longitude positive}
Center radii    : 6378.137, 6378.137, 6356.752 km {Equator_a, b, pole_c}       
Target primary  : Sun
Vis. interferer : MOON (R_eq= 1737.400) km        {source: DE441}
Rel. light bend : Sun                             {source: DE441}
Rel. lght bnd GM: 1.3271E+11 km^3/s^2                                          
Small-body perts: Yes                             {source: SB441-N16}
Atmos refraction: NO (AIRLESS)
RA format       : HMS
Time format     : CAL 
Calendar mode   : Mixed Julian/Gregorian
RTS-only print  : NO       
EOP file        : eop.240715.p241008                                           
EOP coverage    : DATA-BASED 1962-JAN-20 TO 2024-JUL-15. PREDICTS-> 2024-OCT-07
Units conversion: 1 au= 149597870.700 km, c= 299792.458 km/s, 1 day= 86400.0 s 
Table cut-offs 1: Elevation (-90.0deg=NO ),Airmass (>38.000=NO), Daylight (YES)
Table cut-offs 2: Solar elongation (  0.0,180.0=NO ),Local Hour Angle( 0.0=NO )
Table cut-offs 3: RA/DEC angular rate (     0.0=NO )                           
*******************************************************************************
Initial IAU76/J2000 heliocentric ecliptic osculating elements (au, days, deg.):
  EPOCH=  2458376.5 ! 2018-Sep-15.00 (TDB)         Residual RMS= .12525        
   EC= .3382936082205208   QR= .9576766169446216   TP= 2458412.3293739939      
   OM= 161.903422202901    W=  234.5704247756858   IN= 9.466091569921099       
  Equivalent ICRF heliocentric cartesian coordinates (au, au/d):
   X= 1.017940821946709E+00  Y=-7.278189102440286E-02  Z=-7.249995171787897E-02
  VX=-1.754817228708964E-03 VY= 1.862872143473751E-02 VZ= 4.887370356508847E-03
Asteroid physical parameters (km, seconds, rotational period in hours):        
   GM= n.a.                RAD= n.a.               ROTPER= n.a.                
   H= 24.3                 G= .150                 B-V= n.a.                   
                           ALBEDO= n.a.            STYP= n.a.                  
*******************************************************************************
 Date__(UT)__HR:MN     R.A._________(ICRF)_________DEC
******************************************************
$$SOE
 2018-Dec-24 08:06 Am  09 59 29.850963 -17 38 07.22465
 2018-Dec-24 08:07 Am  09 59 29.836828 -17 38 06.70887
 2018-Dec-24 08:08 Am  09 59 29.822688 -17 38 06.19293
 2018-Dec-24 08:09 Am  09 59 29.808543 -17 38 05.67685
 2018-Dec-24 08:10 Am  09 59 29.794394 -17 38 05.16062
 2018-Dec-24 08:11 Am  09 59 29.780239 -17 38 04.64423
 2018-Dec-24 08:12 Am  09 59 29.766080 -17 38 04.12770
 2018-Dec-24 08:13 Am  09 59 29.751917 -17 38 03.61102
 2018-Dec-24 08:14 Am  09 59 29.737749 -17 38 03.09418
 2018-Dec-24 08:15 Am  09 59 29.723577 -17 38 02.57720
 2018-Dec-24 08:16 Am  09 59 29.709401 -17 38 02.06007
 2018-Dec-24 08:17 Am  09 59 29.695221 -17 38 01.54279
 2018-Dec-24 08:18 Am  09 59 29.681038 -17 38 01.02536
 2018-Dec-24 08:19 Am  09 59 29.666850 -17 38 00.50778
 2018-Dec-24 08:20 Am  09 59 29.652660 -17 37 59.99005
 2018-Dec-24 08:21 Am  09 59 29.638465 -17 37 59.47216
 2018-Dec-24 08:22 Am  09 59 29.624268 -17 37 58.95413
 2018-Dec-24 08:23 Am  09 59 29.610067 -17 37 58.43595
 2018-Dec-24 08:24 Am  09 59 29.595864 -17 37 57.91762
 2018-Dec-24 08:25 Am  09 59 29.581658 -17 37 57.39914
 2018-Dec-24 08:26 Am  09 59 29.567449 -17 37 56.88051
 2018-Dec-24 08:27 Am  09 59 29.553237 -17 37 56.36173
 2018-Dec-24 08:28 Am  09 59 29.539023 -17 37 55.84280
 2018-Dec-24 08:29 Am  09 59 29.524807 -17 37 55.32371
 2018-Dec-24 08:30 Am  09 59 29.510588 -17 37 54.80448
 2018-Dec-24 08:31 Am  09 59 29.496368 -17 37 54.28510
 2018-Dec-24 08:32 Am  09 59 29.482145 -17 37 53.76557
 2018-Dec-24 08:33 At  09 59 29.467921 -17 37 53.24589
 2018-Dec-24 08:34 Am  09 59 29.453695 -17 37 52.72605
 2018-Dec-24 08:35 Am  09 59 29.439468 -17 37 52.20607
 2018-Dec-24 08:36 Am  09 59 29.425239 -17 37 51.68594
 2018-Dec-24 08:37 Am  09 59 29.411009 -17 37 51.16566
 2018-Dec-24 08:38 Am  09 59 29.396778 -17 37 50.64522
 2018-Dec-24 08:39 Nm  09 59 29.382546 -17 37 50.12464
 2018-Dec-24 08:40 Nm  09 59 29.368313 -17 37 49.60391
 2018-Dec-24 08:41 Nm  09 59 29.354079 -17 37 49.08302
 2018-Dec-24 08:42 Nm  09 59 29.339845 -17 37 48.56199
 2018-Dec-24 08:43 Nm  09 59 29.325610 -17 37 48.04081
 2018-Dec-24 08:44 Nm  09 59 29.311376 -17 37 47.51948
 2018-Dec-24 08:45 Nm  09 59 29.297140 -17 37 46.99799
 2018-Dec-24 08:46 Nm  09 59 29.282905 -17 37 46.47636
 2018-Dec-24 08:47 Nm  09 59 29.268670 -17 37 45.95458
 2018-Dec-24 08:48 Nm  09 59 29.254436 -17 37 45.43264
 2018-Dec-24 08:49 Nm  09 59 29.240201 -17 37 44.91056
 2018-Dec-24 08:50 Nm  09 59 29.225967 -17 37 44.38833
 2018-Dec-24 08:51 Nm  09 59 29.211734 -17 37 43.86595
 2018-Dec-24 08:52 Nm  09 59 29.197502 -17 37 43.34342
 2018-Dec-24 08:53 Nm  09 59 29.183270 -17 37 42.82074
 2018-Dec-24 08:54 Nm  09 59 29.169039 -17 37 42.29791
 2018-Dec-24 08:55 Nm  09 59 29.154810 -17 37 41.77493
 2018-Dec-24 08:56 Nm  09 59 29.140582 -17 37 41.25180
 2018-Dec-24 08:57 Nm  09 59 29.126355 -17 37 40.72852
 2018-Dec-24 08:58 Nm  09 59 29.112130 -17 37 40.20509
 2018-Dec-24 08:59 Nm  09 59 29.097907 -17 37 39.68151
 2018-Dec-24 09:00 Nm  09 59 29.083685 -17 37 39.15779
 2018-Dec-24 09:01 Nm  09 59 29.069465 -17 37 38.63391
 2018-Dec-24 09:02 Nm  09 59 29.055248 -17 37 38.10989
 2018-Dec-24 09:03 Nm  09 59 29.041033 -17 37 37.58571
 2018-Dec-24 09:04 Nm  09 59 29.026820 -17 37 37.06139
 2018-Dec-24 09:05 Nm  09 59 29.012609 -17 37 36.53692
 2018-Dec-24 09:06 Nm  09 59 28.998401 -17 37 36.01230
 2018-Dec-24 09:07 Nm  09 59 28.984196 -17 37 35.48753
 2018-Dec-24 09:08 Nm  09 59 28.969994 -17 37 34.96261
 2018-Dec-24 09:09 Nm  09 59 28.955795 -17 37 34.43755
 2018-Dec-24 09:10 Nm  09 59 28.941599 -17 37 33.91233
 2018-Dec-24 09:11 Nm  09 59 28.927406 -17 37 33.38697
 2018-Dec-24 09:12 Nm  09 59 28.913217 -17 37 32.86146
 2018-Dec-24 09:13 Cm  09 59 28.899031 -17 37 32.33580
 2018-Dec-24 09:14 Cm  09 59 28.884849 -17 37 31.80999
 2018-Dec-24 09:15 Cm  09 59 28.870671 -17 37 31.28404
 2018-Dec-24 09:16 Cm  09 59 28.856497 -17 37 30.75794
 2018-Dec-24 09:17 Cm  09 59 28.842326 -17 37 30.23169
 2018-Dec-24 09:18 Cm  09 59 28.828160 -17 37 29.70529
 2018-Dec-24 09:19 Cm  09 59 28.813999 -17 37 29.17875
 2018-Dec-24 09:20 Cm  09 59 28.799841 -17 37 28.65205
 2018-Dec-24 09:21 Cm  09 59 28.785689 -17 37 28.12522
 2018-Dec-24 09:22 Cm  09 59 28.771541 -17 37 27.59823
 2018-Dec-24 09:23 Cm  09 59 28.757398 -17 37 27.07110
 2018-Dec-24 09:24 Cm  09 59 28.743260 -17 37 26.54382
 2018-Dec-24 09:25 Cm  09 59 28.729127 -17 37 26.01639
 2018-Dec-24 09:26 Cm  09 59 28.714999 -17 37 25.48882
 2018-Dec-24 09:27 Cm  09 59 28.700877 -17 37 24.96110
 2018-Dec-24 09:28 Cm  09 59 28.686760 -17 37 24.43323
 2018-Dec-24 09:29 Cm  09 59 28.672649 -17 37 23.90522
 2018-Dec-24 09:30 Cm  09 59 28.658543 -17 37 23.37706
